XRISM                   
1 57800U 23137A   23322.59498011  .00003533  00000+0  28065-3 0  9992
2 57800  31.0042 276.6629 0010506 272.9203  87.0229 14.98632359 10893
